ONEWEB-0343             
1 49209U 21083Z   23059.14314833  .00000157  00000+0  36616-3 0  9991
2 49209  87.9226 214.8546 0001742 139.6745 220.4516 13.18684217 72515
ONEWEB-0343             
1 49209U 21083Z   23059.44665498  .00000080  00000+0  16959-3 0  9993
2 49209  87.9227 214.7945 0001775 138.9075 221.2191 13.18684409 71264
ONEWEB-0343             
1 49209U 21083Z   23059.90191483  .00000069  00000+0  14152-3 0  9992
2 49209  87.9228 214.7044 0001808 138.4761 221.6509 13.18684363 71322
ONEWEB-0343             
1 49209U 21083Z   23060.43305071  .00000100  00000+0  21968-3 0  9991
2 49209  87.9229 214.5992 0001842 137.8751 222.2523 13.18684806 72688
ONEWEB-0343             
1 49209U 21083Z   23060.88831123 -.00000003  00000+0 -41291-4 0  9998
2 49209  87.9230 214.5091 0001868 137.6110 222.5166 13.18683976 71452
ONEWEB-0343             
1 49209U 21083Z   23061.79882997  .00000081  00000+0  17352-3 0  9998
2 49209  87.9231 214.3288 0001909 137.7551 222.3728 13.18684187 71575
ONEWEB-0343             
1 49209U 21083Z   23062.40584262  .00000070  00000+0  14402-3 0  9992
2 49209  87.9232 214.2085 0001915 137.2398 222.8883 13.18684546 72949
ONEWEB-0343             
1 49209U 21083Z   23062.48171920  .00000046  00000+0  83182-4 0  9998
2 49209  87.9232 214.1935 0001923 137.0986 223.0297 13.18684662 71661
ONEWEB-0343             
1 49209U 21083Z   23062.86110306 -.00000058  00000+0 -18063-3 0  9991
2 49209  87.9233 214.1183 0001943 137.2519 222.8764 13.18683962 71717
